OBJECT_NAME,OBJECT_ID,EPOCH,MEAN_MOTION,ECCENTRICITY,INCLINATION,RA_OF_ASC_NODE,ARG_OF_PERICENTER,MEAN_ANOMALY,EPHEMERIS_TYPE,CLASSIFICATION_TYPE,NORAD_CAT_ID,ELEMENT_SET_NO,REV_AT_EPOCH,BSTAR,MEAN_MOTION_DOT,MEAN_MOTION_DDOT
ISS (NAUKA),2021-066A,2026-07-07T04:27:30.183264,15.48929707,.000669,51.6305,201.1096,265.7165,94.3058,0,U,49044,999,60987,.11712E-3,.5994E-4,0
STARLINK-3100,2021-082Q,2026-07-06T20:49:54.391296,14.98328821,.0003042,70.0001,353.9552,268.8995,91.1816,0,U,49144,999,26383,-.31641E-4,-.47E-5,0
CUTE,2021-088D,2026-07-06T05:34:15.742560,16.03910366,.00021518,97.4066,288.4907,248.0418,112.0633,0,U,49263,999,26559,.74939321E-3,.475427E-2,.10580002E-3
2021-091B,2021-091B,2026-07-07T05:21:04.399776,15.18652369,.0012661,97.4481,15.4933,338.3709,21.6989,0,U,49316,999,26202,.2021E-4,.351E-5,0
SDGSAT 1,2021-100A,2026-07-07T04:31:20.758944,15.19214337,.0008934,97.2618,234.3736,191.1746,168.9292,0,U,49387,999,25895,.13793E-3,.2841E-4,0
TEIKYOSAT-4 (OORURI),2021-102B,2026-07-07T03:20:45.524256,15.09581551,.0010939,97.3664,216.8471,217.3603,142.6866,0,U,49396,999,25573,.86469E-4,.1329E-4,0
Z-SAT,2021-102E,2026-07-07T04:00:14.621760,15.18424581,.001684,97.3316,222.8834,171.7273,188.4242,0,U,49399,999,25647,.23228E-3,.4731E-4,0
HIBARI,2021-102F,2026-07-06T16:00:49.718304,15.32149897,.0013126,97.3226,233.3519,127.6462,232.5973,0,U,49400,999,25717,.30604E-3,.9449E-4,0
KOSEN-1,2021-102H,2026-07-07T01:31:00.189696,15.27132913,.0015082,97.3175,229.8359,133.3577,226.8921,0,U,49402,999,25705,.23304E-3,.6147E-4,0
GLOBAL-14,2021-106A,2026-07-07T02:40:49.287648,15.51537434,.0016236,42.0026,172.5854,168.4972,191.6246,0,U,49469,999,26122,.29251E-3,.17582E-3,0
GAOFEN-3 02,2021-109A,2026-07-07T04:02:37.714848,14.42219674,.0001547,98.4092,195.9815,311.3849,48.7208,0,U,49495,999,24319,.32255E-4,.63E-6,0
GLOBAL-12,2021-115BA,2026-07-06T21:06:29.366784,15.54920926,.0002592,53.1958,309.7689,70.4044,289.7248,0,U,49772,999,25896,.4473E-3,.30073E-3,0
GLOBAL-13,2021-115BB,2026-07-07T00:36:34.801920,15.46880381,.000154,53.1981,320.2289,149.3428,210.7671,0,U,49773,999,25883,.31835E-3,.15864E-3,0
GLOBAL-17,2021-120A,2026-07-06T18:29:38.448096,15.53378471,.0014114,41.9949,292.5122,26.6424,333.5143,0,U,49949,999,25794,.36235E-3,.23365E-3,0
GLOBAL-16,2021-120B,2026-07-06T17:55:05.335392,15.51181862,.0012394,41.9955,296.7612,15.6283,344.4942,0,U,49950,999,25788,.36857E-3,.21917E-3,0
XW-3 (CAS-9),2021-131B,2026-07-07T04:27:54.446976,14.41377748,.0004986,98.4982,280.4681,50.9575,309.2057,0,U,50466,999,23799,.18732E-3,.563E-5,0
ION SCV-004,2022-002K,2026-07-07T02:38:00.386880,15.30654811,.0005547,97.2819,245.3952,284.8476,75.2151,0,U,50993,999,24834,.13824E-3,.4022E-4,0
ETV-A1,2022-002CE,2026-07-07T03:29:07.308672,15.41116239,.000342,97.2864,254.3973,266.1752,93.9104,0,U,51060,999,24891,.216E-3,.8858E-4,0
BRO-5,2022-002CF,2026-07-07T03:52:57.991584,15.48541672,.0004542,97.2982,262.0219,234.8357,125.2469,0,U,51061,999,24934,.44619E-3,.23714E-3,0
LUDI TANCE 1-01A (L-SAR 01A),2022-007A,2026-07-07T05:09:15.571584,14.88412825,.0001625,97.8102,195.3500,90.6347,269.5056,0,U,51284,999,24145,.58784E-4,.491E-5,0
LUDI TANCE 1-01B (L-SAR 01B),2022-018A,2026-07-06T10:35:56.438880,14.88422741,.00016072,97.8106,194.5856,91.5780,268.5621,0,U,51822,999,23657,.6822939E-4,.578E-5,0
2022-023F,2022-023F,2026-07-07T04:07:19.035840,15.17880097,.013238,63.4441,205.5436,341.6945,17.9425,0,U,51951,999,24074,.21527E-3,.5255E-4,0
MERIDIAN 10,2022-030A,2026-07-06T21:48:31.998816,2.00610858,.6789282,62.6814,138.6582,272.8476,17.6287,0,U,52145,999,3142,0,.208E-5,0
OMNI-L1,2022-033A,2026-07-06T05:00:40.377888,14.82824042,.00045629,97.8386,266.0171,207.2294,152.8681,0,U,52157,999,23027,.28316574E-3,.2239E-4,0
ENMAP,2022-033C,2026-07-07T04:16:24.099744,14.74936171,.0001371,97.9787,270.1442,77.9946,282.1416,0,U,52159,999,22960,.14558E-4,.48E-6,0
ARCSAT-1,2022-033E,2026-07-07T05:13:48.694944,15.54120916,.0006295,97.2748,280.7952,118.6396,241.5492,0,U,52161,999,23881,.15483E-3,.9961E-4,0
GLOBAL-18,2022-034B,2026-07-06T21:35:03.700896,15.46973117,.0004111,52.9802,162.3799,1.2196,358.8819,0,U,52196,999,24001,.27699E-3,.13792E-3,0
