ISS (NAUKA)             
1 49044U 21066A   26188.18576601  .00005994  00000+0  11712-3 0  9996
2 49044  51.6305 201.1096 0006690 265.7165  94.3058 15.48929707609876
STARLINK-3100           
1 49144U 21082Q   26187.86799064 -.00000470  00000+0 -31641-4 0  9999
2 49144  70.0001 353.9552 0003042 268.8995  91.1816 14.98328821263834
CUTE                    
1 49263U 21088D   26187.23212665  .00475427  10580-3  74939-3 0  9995
2 49263  97.4066 288.4907 0002151 248.0418 112.0633 16.03910366265590
2021-091B               
1 49316U 21091B   26188.22296759  .00000351  00000+0  20210-4 0  9990
2 49316  97.4481  15.4933 0012661 338.3709  21.6989 15.18652369262025
SDGSAT 1                
1 49387U 21100A   26188.18843471  .00002841  00000+0  13793-3 0  9996
2 49387  97.2618 234.3736 0008934 191.1746 168.9292 15.19214337258959
TEIKYOSAT-4 (OORURI)    
1 49396U 21102B   26188.13941579  .00001329  00000+0  86469-4 0  9992
2 49396  97.3664 216.8471 0010939 217.3603 142.6866 15.09581551255736
Z-SAT                   
1 49399U 21102E   26188.16683590  .00004731  00000+0  23228-3 0  9997
2 49399  97.3316 222.8834 0016840 171.7273 188.4242 15.18424581256473
HIBARI                  
1 49400U 21102F   26187.66724211  .00009449  00000+0  30604-3 0  9997
2 49400  97.3226 233.3519 0013126 127.6462 232.5973 15.32149897257177
KOSEN-1                 
1 49402U 21102H   26188.06319664  .00006147  00000+0  23304-3 0  9997
2 49402  97.3175 229.8359 0015082 133.3577 226.8921 15.27132913257059
GLOBAL-14               
1 49469U 21106A   26188.11168157  .00017582  00000+0  29251-3 0  9991
2 49469  42.0026 172.5854 0016236 168.4972 191.6246 15.51537434261225
GAOFEN-3 02             
1 49495U 21109A   26188.16849207  .00000063  00000+0  32255-4 0  9995
2 49495  98.4092 195.9815 0001547 311.3849  48.7208 14.42219674243197
GLOBAL-12               
1 49772U 21115BA  26187.87950656  .00030073  00000+0  44730-3 0  9992
2 49772  53.1958 309.7689 0002592  70.4044 289.7248 15.54920926258964
GLOBAL-13               
1 49773U 21115BB  26188.02540280  .00015864  00000+0  31835-3 0  9992
2 49773  53.1981 320.2289 0001540 149.3428 210.7671 15.46880381258830
GLOBAL-17               
1 49949U 21120A   26187.77058389  .00023365  00000+0  36235-3 0  9992
2 49949  41.9949 292.5122 0014114  26.6424 333.5143 15.53378471257944
GLOBAL-16               
1 49950U 21120B   26187.74658953  .00021917  00000+0  36857-3 0  9995
2 49950  41.9955 296.7612 0012394  15.6283 344.4942 15.51181862257887
XW-3 (CAS-9)            
1 50466U 21131B   26188.18604684  .00000563  00000+0  18732-3 0  9998
2 50466  98.4982 280.4681 0004986  50.9575 309.2057 14.41377748237992
ION SCV-004             
1 50993U 22002K   26188.10972670  .00004022  00000+0  13824-3 0  9997
2 50993  97.2819 245.3952 0005547 284.8476  75.2151 15.30654811248340
ETV-A1                  
1 51060U 22002CE  26188.14522348  .00008858  00000+0  21600-3 0  9992
2 51060  97.2864 254.3973 0003420 266.1752  93.9104 15.41116239248914
BRO-5                   
1 51061U 22002CF  26188.16178231  .00023714  00000+0  44619-3 0  9996
2 51061  97.2982 262.0219 0004542 234.8357 125.2469 15.48541672249345
LUDI TANCE 1-01A (L-SA*)
1 51284U 22007A   26188.21476356  .00000491  00000+0  58784-4 0  9999
2 51284  97.8102 195.3500 0001625  90.6347 269.5056 14.88412825241457
LUDI TANCE 1-01B (L-SA*)
1 51822U 22018A   26187.44162545  .00000578  00000+0  68229-4 0  9996
2 51822  97.8106 194.5856 0001607  91.5780 268.5621 14.88422741236577
2022-023F               
1 51951U 22023F   26188.17174810  .00005255  00000+0  21527-3 0  9990
2 51951  63.4441 205.5436 0132380 341.6945  17.9425 15.17880097240740
MERIDIAN 10             
1 52145U 22030A   26187.90870369  .00000208  00000+0  00000+0 0  9998
2 52145  62.6814 138.6582 6789282 272.8476  17.6287  2.00610858 31428
OMNI-L1                 
1 52157U 22033A   26187.20880067  .00002239  00000+0  28317-3 0  9994
2 52157  97.8386 266.0171 0004562 207.2294 152.8681 14.82824042230279
ENMAP                   
1 52159U 22033C   26188.17805671  .00000048  00000+0  14558-4 0  9990
2 52159  97.9787 270.1442 0001371  77.9946 282.1416 14.74936171229601
ARCSAT-1                
1 52161U 22033E   26188.21792471  .00009961  00000+0  15483-3 0  9991
2 52161  97.2748 280.7952 0006295 118.6396 241.5492 15.54120916238816
GLOBAL-18               
1 52196U 22034B   26187.89934839  .00013792  00000+0  27699-3 0  9998
2 52196  52.9802 162.3799 0004111   1.2196 358.8819 15.46973117240017
